
# Worst residual: 14.07 km
# MJD 60520.000000 (2024 Jul 29  0:00)
A116CgX = A116I21
1 79925U 24999ZZO 24211.49919926  .00000000  00000-0  00000-0 0 24148
2 79925 027.6111 356.9305 9053772 157.2628 338.9129 00.44254482    05

# Worst residual: 7.38 km
# MJD 60521.000000 (2024 Jul 30  0:00)
A116CgX = A116I21
1 79925U 24999ZZO 24212.49919926  .00000000  00000-0  00000-0 0 24149
2 79925 027.5920 356.8759 9056850 157.3562 138.0643 00.44231560    04

# Worst residual: 8.33 km
# MJD 60522.000000 (2024 Jul 31  0:00)
A116CgX = A116I21
1 79925U 24999ZZO 24213.49919926  .00000000  00000-0  00000-0 0 24140
2 79925 027.6011 356.8239 9055730 157.4431 297.2146 00.44225326    00

# Worst residual: 11.94 km
# MJD 60523.000000 (2024 Aug  1  0:00)
A116CgX = A116I21
1 79925U 24999ZZO 24214.49919926  .00000000  00000-0  00000-0 0 24398
2 79925 027.6030 356.7379 9056028 157.5496 096.6674 00.44238618    03

# Worst residual: 9.53 km
# MJD 60524.000000 (2024 Aug  2  0:00)
A116CgX = A116I21
1 79925U 24999ZZO 24215.49919926  .00000000  00000-0  00000-0 0 24399
2 79925 027.5763 356.7174 9054526 157.6113 255.8331 00.44225574    02

# Worst residual: 13.71 km
# MJD 60525.000000 (2024 Aug  3  0:00)
A116CgX = A116I21
1 79925U 24999ZZO 24216.49919926  .00000000  00000-0  00000-0 0 24390
2 79925 027.5912 356.6324 9054592 157.7610 055.0104 00.44221770    02

# Worst residual: 7.17 km
# MJD 60526.000000 (2024 Aug  4  0:00)
A116CgX = A116I21
1 79925U 24999ZZO 24217.49919926  .00000000  00000-0  00000-0 0 24391
2 79925 027.5621 356.6104 9054678 157.8149 214.2394 00.44231274    08

# Worst residual: 23.84 km
# MJD 60527.000000 (2024 Aug  5  0:00)
A116CgX = A116I21
1 79925U 24999ZZO 24218.49919926  .00000000  00000-0  00000-0 0 24392
2 79925 027.5781 356.5425 9054635 157.9254 013.4575 00.44201068    09

# Worst residual: 3.88 km
# MJD 60528.000000 (2024 Aug  6  0:00)
A116CgX = A116I21
1 79925U 24999ZZO 24219.49919926  .00000000  00000-0  00000-0 0 24393
2 79925 027.5615 356.4921 9054607 158.0135 172.7121 00.44237225    04

# Worst residual: 24.89 km
# MJD 60529.000000 (2024 Aug  7  0:00)
A116CgX = A116I21
1 79925U 24999ZZO 24220.49919926  .00000000  00000-0  00000-0 0 24395
2 79925 027.5869 356.4277 9054255 158.1054 331.9893 00.44208402    09

# Worst residual: 11.48 km
# MJD 60530.000000 (2024 Aug  8  0:00)
A116CgX = A116I21
1 79925U 24999ZZO 24221.49919926  .00000000  00000-0  00000-0 0 24396
2 79925 027.5702 356.3633 9054200 158.2254 131.2096 00.44237902    06

# Worst residual: 12.09 km
# MJD 60531.000000 (2024 Aug  9  0:00)
A116CgX = A116I21
1 79925U 24999ZZO 24222.49919926  .00000000  00000-0  00000-0 0 24397
2 79925 027.5819 356.3106 9054565 158.3042 290.4952 00.44232762    08

# Worst residual: 18.94 km
# MJD 60532.000000 (2024 Aug 10  0:00)
A116CgX = A116I21
1 79925U 24999ZZO 24223.49919926  .00000000  00000-0  00000-0 0 24398
2 79925 027.5865 356.2211 9054237 158.4648 089.6945 00.44235120    05

# Worst residual: 5.69 km
# MJD 60533.000000 (2024 Aug 11  0:00)
A116CgX = A116I21
1 79925U 24999ZZO 24224.49919926  .00000000  00000-0  00000-0 0 24399
2 79925 027.5530 356.2068 9056142 158.5115 248.9689 00.44250427    03

# Worst residual: 15.32 km
# MJD 60534.000000 (2024 Aug 12  0:00)
A116CgX = A116I21
1 79925U 24999ZZO 24225.49919926  .00000000  00000-0  00000-0 0 24390
2 79925 027.5658 356.1276 9054829 158.6418 048.2173 00.44261110    01

# Worst residual: 3.69 km
# MJD 60535.000000 (2024 Aug 13  0:00)
A116CgX = A116I21
1 79925U 24999ZZO 24226.49919926  .00000000  00000-0  00000-0 0 24391
2 79925 027.5366 356.1005 9055634 158.7121 207.4794 00.44257952    01

# Worst residual: 16.27 km
# MJD 60536.000000 (2024 Aug 14  0:00)
A116CgX = A116I21
1 79925U 24999ZZO 24227.49919926  .00000000  00000-0  00000-0 0 24392
2 79925 027.5531 356.0325 9052408 158.8175 006.7291 00.44286156    05

# Worst residual: 2.85 km
# MJD 60537.000000 (2024 Aug 15  0:00)
A116CgX = A116I21
1 79925U 24999ZZO 24228.49919926  .00000000  00000-0  00000-0 0 24393
2 79925 027.5316 355.9876 9054674 158.9001 166.0129 00.44266670    00

# Worst residual: 15.05 km
# MJD 60538.000000 (2024 Aug 16  0:00)
A116CgX = A116I21
1 79925U 24999ZZO 24229.49919926  .00000000  00000-0  00000-0 0 24394
2 79925 027.5543 355.9288 9052073 158.9831 325.3543 00.44242777    03

# Worst residual: 9.97 km
# MJD 60539.000000 (2024 Aug 17  0:00)
A116CgX = A116I21
1 79925U 24999ZZO 24230.49919926  .00000000  00000-0  00000-0 0 24396
2 79925 027.5355 355.8634 9054624 159.0894 124.5756 00.44250117    05

# Worst residual: 20.31 km
# MJD 60540.000000 (2024 Aug 18  0:00)
A116CgX = A116I21
1 79925U 24999ZZO 24231.49919926  .00000000  00000-0  00000-0 0 24397
2 79925 027.5277 355.8262 9057141 159.1578 283.8995 00.44245354    03

# Worst residual: 18.25 km
# MJD 60541.000000 (2024 Aug 19  0:00)
A116CgX = A116I21
1 79925U 24999ZZO 24232.49919926  .00000000  00000-0  00000-0 0 24398
2 79925 027.5320 355.7352 9056426 159.3479 083.4191 00.44386798    08

# Worst residual: 11.19 km
# MJD 60542.000000 (2024 Aug 20  0:00)
A116CgX = A116I21
1 79925U 24999ZZO 24233.49919926  .00000000  00000-0  00000-0 0 24399
2 79925 027.4655 355.7500 9057933 159.3966 242.9827 00.44387296    00

# Worst residual: 244.24 km
# MJD 60543.000000 (2024 Aug 21  0:00)
A116CgX = A116I21
1 79925U 24999ZZO 24234.49919926  .00000000  00000-0  00000-0 0 24390
2 79925 027.4694 355.6683 9039389 159.6310 044.0033 00.45720570    02

# Worst residual: 8.68 km
# MJD 60544.000000 (2024 Aug 22  0:00)
A116CgX = A116I21
1 79925U 24999ZZO 24235.49919926  .00000000  00000-0  00000-0 0 24391
2 79925 027.4334 355.6435 9036557 159.6532 209.1700 00.45837504    09
